CCSDS_OMM_VERS = 2.0
CREATION_DATE  = 
ORIGINATOR     = 

OBJECT_NAME    = SL-3 R/B
OBJECT_ID      = 1988-032B
CENTER_NAME    = EARTH
REF_FRAME      = TEME
TIME_SYSTEM    = UTC
MEAN_ELEMENT_THEORY = SGP/SGP4

EPOCH          = 2026-04-03T05:18:30.003840
MEAN_MOTION    = 15.20193514
ECCENTRICITY   = .0026902
INCLINATION    = 97.5221
RA_OF_ASC_NODE = 76.3952
ARG_OF_PERICENTER = 145.1164
MEAN_ANOMALY   = 215.1841

EPHEMERIS_TYPE = 0
CLASSIFICATION_TYPE = U
NORAD_CAT_ID   = 19046
ELEMENT_SET_NO = 999
REV_AT_EPOCH   = 5583
BSTAR          = .41075536E-3
MEAN_MOTION_DOT = .8916E-4
MEAN_MOTION_DDOT = 0

CCSDS_OMM_VERS = 2.0
CREATION_DATE  = 
ORIGINATOR     = 

OBJECT_NAME    = SL-16 R/B
OBJECT_ID      = 1988-039B
CENTER_NAME    = EARTH
REF_FRAME      = TEME
TIME_SYSTEM    = UTC
MEAN_ELEMENT_THEORY = SGP/SGP4

EPOCH          = 2026-04-03T05:15:58.705344
MEAN_MOTION    = 14.19620577
ECCENTRICITY   = .00237864
INCLINATION    = 71.0174
RA_OF_ASC_NODE = 16.6791
ARG_OF_PERICENTER = 299.3313
MEAN_ANOMALY   = 60.5436

EPHEMERIS_TYPE = 0
CLASSIFICATION_TYPE = U
NORAD_CAT_ID   = 19120
ELEMENT_SET_NO = 999
REV_AT_EPOCH   = 96186
BSTAR          = -.1017838E-5
MEAN_MOTION_DOT = -.5E-6
MEAN_MOTION_DDOT = 0

CCSDS_OMM_VERS = 2.0
CREATION_DATE  = 
ORIGINATOR     = 

OBJECT_NAME    = COSMOS 1953
OBJECT_ID      = 1988-050A
CENTER_NAME    = EARTH
REF_FRAME      = TEME
TIME_SYSTEM    = UTC
MEAN_ELEMENT_THEORY = SGP/SGP4

EPOCH          = 2026-04-03T04:07:19.174080
MEAN_MOTION    = 15.28918467
ECCENTRICITY   = .00119599
INCLINATION    = 82.5064
RA_OF_ASC_NODE = 133.6166
ARG_OF_PERICENTER = 46.1477
MEAN_ANOMALY   = 314.0749

EPHEMERIS_TYPE = 0
CLASSIFICATION_TYPE = U
NORAD_CAT_ID   = 19210
ELEMENT_SET_NO = 999
REV_AT_EPOCH   = 4152
BSTAR          = .42687249E-3
MEAN_MOTION_DOT = .1205E-3
MEAN_MOTION_DDOT = 0

CCSDS_OMM_VERS = 2.0
CREATION_DATE  = 
ORIGINATOR     = 

OBJECT_NAME    = SL-8 R/B
OBJECT_ID      = 1988-053B
CENTER_NAME    = EARTH
REF_FRAME      = TEME
TIME_SYSTEM    = UTC
MEAN_ELEMENT_THEORY = SGP/SGP4

EPOCH          = 2026-04-03T06:37:18.625728
MEAN_MOTION    = 14.38933356
ECCENTRICITY   = .00213894
INCLINATION    = 74.0466
RA_OF_ASC_NODE = 67.1420
ARG_OF_PERICENTER = 243.0917
MEAN_ANOMALY   = 218.2471

EPHEMERIS_TYPE = 0
CLASSIFICATION_TYPE = U
NORAD_CAT_ID   = 19257
ELEMENT_SET_NO = 999
REV_AT_EPOCH   = 98013
BSTAR          = .13244444E-3
MEAN_MOTION_DOT = .383E-5
MEAN_MOTION_DDOT = 0

CCSDS_OMM_VERS = 2.0
CREATION_DATE  = 
ORIGINATOR     = 

OBJECT_NAME    = COSMOS 1975
OBJECT_ID      = 1988-093A
CENTER_NAME    = EARTH
REF_FRAME      = TEME
TIME_SYSTEM    = UTC
MEAN_ELEMENT_THEORY = SGP/SGP4

EPOCH          = 2026-04-03T06:41:18.529152
MEAN_MOTION    = 15.28426400
ECCENTRICITY   = .00134016
INCLINATION    = 82.5156
RA_OF_ASC_NODE = 92.9884
ARG_OF_PERICENTER = 86.1341
MEAN_ANOMALY   = 274.1431

EPHEMERIS_TYPE = 0
CLASSIFICATION_TYPE = U
NORAD_CAT_ID   = 19573
ELEMENT_SET_NO = 999
REV_AT_EPOCH   = 2316
BSTAR          = .4117974E-3
MEAN_MOTION_DOT = .11459E-3
MEAN_MOTION_DDOT = 0

CCSDS_OMM_VERS = 2.0
CREATION_DATE  = 
ORIGINATOR     = 

OBJECT_NAME    = SL-14 R/B
OBJECT_ID      = 1988-093B
CENTER_NAME    = EARTH
REF_FRAME      = TEME
TIME_SYSTEM    = UTC
MEAN_ELEMENT_THEORY = SGP/SGP4

EPOCH          = 2026-04-03T06:07:36.636960
MEAN_MOTION    = 14.85687745
ECCENTRICITY   = .00196618
INCLINATION    = 82.5345
RA_OF_ASC_NODE = 18.9879
ARG_OF_PERICENTER = 320.4660
MEAN_ANOMALY   = 153.0639

EPHEMERIS_TYPE = 0
CLASSIFICATION_TYPE = U
NORAD_CAT_ID   = 19574
ELEMENT_SET_NO = 999
REV_AT_EPOCH   = 466
BSTAR          = .94959182E-4
MEAN_MOTION_DOT = .85E-5
MEAN_MOTION_DDOT = 0

CCSDS_OMM_VERS = 2.0
CREATION_DATE  = 
ORIGINATOR     = 

OBJECT_NAME    = SL-16 R/B
OBJECT_ID      = 1988-102B
CENTER_NAME    = EARTH
REF_FRAME      = TEME
TIME_SYSTEM    = UTC
MEAN_ELEMENT_THEORY = SGP/SGP4

EPOCH          = 2026-04-03T06:34:27.873408
MEAN_MOTION    = 14.16154710
ECCENTRICITY   = .00153389
INCLINATION    = 70.9970
RA_OF_ASC_NODE = 99.7678
ARG_OF_PERICENTER = 325.5527
MEAN_ANOMALY   = 34.4601

EPHEMERIS_TYPE = 0
CLASSIFICATION_TYPE = U
NORAD_CAT_ID   = 19650
ELEMENT_SET_NO = 999
REV_AT_EPOCH   = 93037
BSTAR          = .13900727E-3
MEAN_MOTION_DOT = .227E-5
MEAN_MOTION_DDOT = 0

CCSDS_OMM_VERS = 2.0
CREATION_DATE  = 
ORIGINATOR     = 

OBJECT_NAME    = INTERCOSMOS 24
OBJECT_ID      = 1989-080A
CENTER_NAME    = EARTH
REF_FRAME      = TEME
TIME_SYSTEM    = UTC
MEAN_ELEMENT_THEORY = SGP/SGP4

EPOCH          = 2026-04-03T00:42:30.816576
MEAN_MOTION    = 12.59589006
ECCENTRICITY   = .11869748
INCLINATION    = 82.6015
RA_OF_ASC_NODE = 88.5492
ARG_OF_PERICENTER = 236.2771
MEAN_ANOMALY   = 111.9662

EPHEMERIS_TYPE = 0
CLASSIFICATION_TYPE = U
NORAD_CAT_ID   = 20261
ELEMENT_SET_NO = 999
REV_AT_EPOCH   = 66986
BSTAR          = .17884605E-3
MEAN_MOTION_DOT = .607E-5
MEAN_MOTION_DDOT = 0

CCSDS_OMM_VERS = 2.0
CREATION_DATE  = 
ORIGINATOR     = 

OBJECT_NAME    = SL-14 R/B
OBJECT_ID      = 1989-080C
CENTER_NAME    = EARTH
REF_FRAME      = TEME
TIME_SYSTEM    = UTC
MEAN_ELEMENT_THEORY = SGP/SGP4

EPOCH          = 2026-04-03T04:49:48.898560
MEAN_MOTION    = 12.50517712
ECCENTRICITY   = .12309018
INCLINATION    = 82.5947
RA_OF_ASC_NODE = 157.4578
ARG_OF_PERICENTER = 128.7508
MEAN_ANOMALY   = 243.0246

EPHEMERIS_TYPE = 0
CLASSIFICATION_TYPE = U
NORAD_CAT_ID   = 20262
ELEMENT_SET_NO = 999
REV_AT_EPOCH   = 66321
BSTAR          = .16376898E-3
MEAN_MOTION_DOT = .574E-5
MEAN_MOTION_DDOT = 0

CCSDS_OMM_VERS = 2.0
CREATION_DATE  = 
ORIGINATOR     = 

OBJECT_NAME    = DELTA 1 R/B
OBJECT_ID      = 1989-089B
CENTER_NAME    = EARTH
REF_FRAME      = TEME
TIME_SYSTEM    = UTC
MEAN_ELEMENT_THEORY = SGP/SGP4

EPOCH          = 2026-04-03T04:13:26.942592
MEAN_MOTION    = 14.50684932
ECCENTRICITY   = .00702318
INCLINATION    = 97.0686
RA_OF_ASC_NODE = 296.7163
ARG_OF_PERICENTER = 46.1048
MEAN_ANOMALY   = 314.5920

EPHEMERIS_TYPE = 0
CLASSIFICATION_TYPE = U
NORAD_CAT_ID   = 20323
ELEMENT_SET_NO = 999
REV_AT_EPOCH   = 89928
BSTAR          = .15529717E-3
MEAN_MOTION_DOT = .595E-5
MEAN_MOTION_DDOT = 0

CCSDS_OMM_VERS = 2.0
CREATION_DATE  = 
ORIGINATOR     = 

OBJECT_NAME    = ARIANE 40 R/B
OBJECT_ID      = 1990-005H
CENTER_NAME    = EARTH
REF_FRAME      = TEME
TIME_SYSTEM    = UTC
MEAN_ELEMENT_THEORY = SGP/SGP4

EPOCH          = 2026-04-03T03:14:48.690528
MEAN_MOTION    = 14.39887575
ECCENTRICITY   = .00112072
INCLINATION    = 98.3032
RA_OF_ASC_NODE = 153.0622
ARG_OF_PERICENTER = 127.9465
MEAN_ANOMALY   = 232.2739

EPHEMERIS_TYPE = 0
CLASSIFICATION_TYPE = U
NORAD_CAT_ID   = 20443
ELEMENT_SET_NO = 999
REV_AT_EPOCH   = 89632
BSTAR          = .14721442E-3
MEAN_MOTION_DOT = .421E-5
MEAN_MOTION_DDOT = 0

CCSDS_OMM_VERS = 2.0
CREATION_DATE  = 
ORIGINATOR     = 

OBJECT_NAME    = DELTA 2 R/B(1)
OBJECT_ID      = 1990-008B
CENTER_NAME    = EARTH
REF_FRAME      = TEME
TIME_SYSTEM    = UTC
MEAN_ELEMENT_THEORY = SGP/SGP4

EPOCH          = 2026-04-03T04:19:15.659904
MEAN_MOTION    = 15.59400732
ECCENTRICITY   = .00765145
INCLINATION    = 35.6041
RA_OF_ASC_NODE = 13.7385
ARG_OF_PERICENTER = 129.1539
MEAN_ANOMALY   = 231.6028

EPHEMERIS_TYPE = 0
CLASSIFICATION_TYPE = U
NORAD_CAT_ID   = 20453
ELEMENT_SET_NO = 999
REV_AT_EPOCH   = 92995
BSTAR          = .10598011E-2
MEAN_MOTION_DOT = .100934E-2
MEAN_MOTION_DDOT = 0

