SL-3 R/B                
1 19046U 88032B   26093.22118060  .00008916  00000+0  41076-3 0  9995
2 19046  97.5221  76.3952 0026902 145.1164 215.1841 15.20193514 55835
SL-16 R/B               
1 19120U 88039B   26093.21942946 -.00000050  00000+0 -10178-5 0  9996
2 19120  71.0174  16.6791 0023786 299.3313  60.5436 14.19620577961867
COSMOS 1953             
1 19210U 88050A   26093.17174970  .00012050  00000+0  42687-3 0  9997
2 19210  82.5064 133.6166 0011959  46.1477 314.0749 15.28918467 41521
SL-8 R/B                
1 19257U 88053B   26093.27591002  .00000383  00000+0  13244-3 0  9994
2 19257  74.0466  67.1420 0021389 243.0917 218.2471 14.38933356980133
COSMOS 1975             
1 19573U 88093A   26093.27868668  .00011459  00000+0  41180-3 0  9990
2 19573  82.5156  92.9884 0013401  86.1341 274.1431 15.28426400 23162
SL-14 R/B               
1 19574U 88093B   26093.25528515  .00000850  00000+0  94959-4 0  9999
2 19574  82.5345  18.9879 0019661 320.4660 153.0639 14.85687745  4669
SL-16 R/B               
1 19650U 88102B   26093.27393372  .00000227  00000+0  13901-3 0  9993
2 19650  70.9970  99.7678 0015338 325.5527  34.4601 14.16154710930370
INTERCOSMOS 24          
1 20261U 89080A   26093.02952334  .00000607  00000+0  17885-3 0  9998
2 20261  82.6015  88.5492 1186974 236.2771 111.9662 12.59589006669861
SL-14 R/B               
1 20262U 89080C   26093.20126040  .00000574  00000+0  16377-3 0  9994
2 20262  82.5947 157.4578 1230901 128.7508 243.0246 12.50517712663213
DELTA 1 R/B             
1 20323U 89089B   26093.17600628  .00000595  00000+0  15530-3 0  9999
2 20323  97.0686 296.7163 0070231  46.1048 314.5920 14.50684932899280
ARIANE 40 R/B           
1 20443U 90005H   26093.13528577  .00000421  00000+0  14721-3 0  9999
2 20443  98.3032 153.0622 0011207 127.9465 232.2739 14.39887575896327
DELTA 2 R/B(1)          
1 20453U 90008B   26093.18004236  .00100934  00000+0  10598-2 0  9996
2 20453  35.6041  13.7385 0076514 129.1539 231.6028 15.59400732929957
